     2.100          NAVIGATION                              RINEX VERSION / TYPE
fic2rin                                 02/07/2018 00:06:51 PGM / RUN BY / DATE
                                                            END OF HEADER
 4 18  2  6 16  0  0.0  .365730375051D-04  .227373675443D-11  .000000000000D+00
     .700000000000D+02 -.284375000000D+02  .530736393015D-08 -.186319617673D+01
    -.145845115185D-05  .951733009424D-02  .659562647343D-05  .515367384338D+04
     .230400000000D+06  .109896063805D-06 -.281562907270D+01 -.596046447754D-07
     .980326685604D+00  .261687500000D+03  .893741713964D+00 -.785961309872D-08
    -.252153360342D-09  .100000000000D+01  .198700000000D+04  .000000000000D+00
     .340000000000D+01  .630000000000D+02 -.195577740669D-07  .700000000000D+02
     .223206000000D+06  .400000000000D+01
 5 18  2  6 16  0  0.0 -.149938277900D-04  .102318153949D-11  .000000000000D+00
     .780000000000D+02 -.452500000000D+02  .503413826349D-08 -.230658523382D+01
    -.257045030594D-05  .528599775862D-02  .750459730625D-05  .515363799667D+04
     .230400000000D+06  .838190317154D-07  .278742209132D+00 -.106170773506D-06
     .947893682068D+00  .226937500000D+03  .626125361092D+00 -.827891627867D-08
    -.503592405216D-10  .100000000000D+01  .198700000000D+04  .000000000000D+00
     .240000000000D+01  .000000000000D+00 -.107102096081D-07  .780000000000D+02
     .223206000000D+06  .400000000000D+01
 6 18  2  6 16  0  0.0  .414729118347D-03 -.227373675443D-12  .000000000000D+00
     .260000000000D+02 -.690625000000D+01  .439411160381D-08  .127186737546D+01
    -.238418579102D-06  .107617734466D-02  .643916428089D-05  .515356696129D+04
     .230400000000D+06 -.279396772385D-07 -.751777848234D+00 -.707805156708D-07
     .969854638156D+00  .257875000000D+03 -.125284592211D+01 -.808997983728D-08
     .310012913282D-09  .100000000000D+01  .198700000000D+04  .000000000000D+00
     .240000000000D+01  .000000000000D+00  .465661287308D-08  .260000000000D+02
     .223206000000D+06  .400000000000D+01
 7 18  2  6 16  0  0.0  .240684952587D-03 -.557065504836D-11  .000000000000D+00
     .440000000000D+02  .521562500000D+02  .483377277461D-08  .325020689228D+00
     .281631946564D-05  .111441221088D-01  .593811273575D-05  .515369272804D+04
     .230400000000D+06 -.558793544769D-08  .241184791695D+01  .987201929092D-07
     .959545227699D+00  .261281250000D+03 -.254439250814D+01 -.848642492223D-08
    -.703600736366D-10  .100000000000D+01  .198700000000D+04  .000000000000D+00
     .240000000000D+01  .000000000000D+00 -.111758708954D-07  .440000000000D+02
     .223206000000D+06  .400000000000D+01
 8 18  2  6 16  0  0.0 -.902502797544D-04 -.136424205266D-11  .000000000000D+00
     .660000000000D+02 -.100312500000D+02  .415874465698D-08 -.268077217418D+01
    -.379979610443D-06  .330261315685D-02  .959448516369D-05  .515376344872D+04
     .230400000000D+06  .000000000000D+00 -.180814536396D+01  .447034835815D-07
     .968421712823D+00  .198218750000D+03 -.565107238185D+00 -.793711632704D-08
     .145720355552D-09  .100000000000D+01  .198700000000D+04  .000000000000D+00
     .240000000000D+01  .000000000000D+00  .558793544769D-08  .660000000000D+02
     .223206000000D+06  .400000000000D+01
 9 18  2  6 16  0  0.0  .499091576785D-03  .284217094304D-11  .000000000000D+00
     .440000000000D+02  .179687500000D+02  .473841165958D-08 -.284838676359D+01
     .105053186417D-05  .116504984908D-02  .107195228338D-04  .515369123077D+04
     .230400000000D+06  .149011611938D-07  .133345659671D+01  .931322574615D-08
     .952638536899D+00  .170218750000D+03  .174498518813D+01 -.808640825993D-08
     .000000000000D+00  .100000000000D+01  .198700000000D+04  .000000000000D+00
     .240000000000D+01  .000000000000D+00  .139698386192D-08  .440000000000D+02
     .223206000000D+06  .400000000000D+01
10 18  2  6 16  0  0.0  .156493857503D-03  .500222085975D-11  .000000000000D+00
     .370000000000D+02 -.435937500000D+02  .470448167483D-08 -.102771270148D+01
    -.228174030781D-05  .324061838910D-02  .778399407864D-05  .515366455269D+04
     .230400000000D+06  .465661287308D-07  .295528605998D+00  .260770320892D-07
     .961097569572D+00  .227593750000D+03 -.283686607452D+01 -.811426656320D-08
    -.109647424398D-09  .100000000000D+01  .198700000000D+04  .000000000000D+00
     .240000000000D+01  .000000000000D+00  .186264514923D-08  .370000000000D+02
     .223206000000D+06  .400000000000D+01
11 18  2  6 16  0  0.0 -.735748559237D-03 -.682121026330D-12  .000000000000D+00
     .360000000000D+02  .478125000000D+01  .597489173537D-08  .300219934120D+00
     .188127160072D-06  .167360656196D-01  .725686550140D-05  .515375830841D+04
     .230400000000D+06 -.150874257088D-06 -.116317620483D+01 -.147148966789D-06
     .903864248340D+00  .211687500000D+03  .173891449064D+01 -.915716714705D-08
     .319299014371D-09  .100000000000D+01  .198700000000D+04  .000000000000D+00
     .240000000000D+01  .000000000000D+00 -.121071934700D-07  .360000000000D+02
     .223206000000D+06  .400000000000D+01
12 18  2  6 16  0  0.0  .351689290255D-03 -.193267624127D-11  .000000000000D+00
     .370000000000D+02 -.181875000000D+02  .398909473324D-08 -.257900581406D+00
    -.964850187302D-06  .691041897517D-02  .656768679619D-05  .515365047073D+04
     .230400000000D+06 -.167638063431D-07 -.278167595099D+01  .819563865662D-07
     .987784993073D+00  .266750000000D+03  .918499327618D+00 -.800997650482D-08
    -.273225666660D-09  .100000000000D+01  .198700000000D+04  .000000000000D+00
     .240000000000D+01  .000000000000D+00 -.125728547573D-07  .370000000000D+02
     .223206000000D+06  .400000000000D+01
13 18  2  6 16  0  0.0 -.955602154136D-04 -.113686837722D-12  .000000000000D+00
     .106000000000D+03  .330312500000D+02  .438125392538D-08  .173775614187D+01
     .168010592461D-05  .369399122428D-02  .977143645287D-05  .515366119003D+04
     .230400000000D+06  .223517417908D-07  .146355228644D+01 -.745058059692D-07
     .968416231269D+00  .195000000000D+03  .162629625688D+01 -.787104214621D-08
     .310727228751D-10  .100000000000D+01  .198700000000D+04  .000000000000D+00
     .240000000000D+01  .000000000000D+00 -.111758708954D-07  .106000000000D+03
     .223206000000D+06  .400000000000D+01
14 18  2  6 16  0  0.0 -.935602001846D-04 -.568434188608D-12  .000000000000D+00
     .360000000000D+02  .434687500000D+02  .439839749662D-08  .285664000904D+01
     .218674540520D-05  .931555789430D-02  .105779618025D-04  .515374045944D+04
     .230400000000D+06  .707805156708D-07  .142237538936D+01 -.126659870148D-06
     .960972424244D+00  .172093750000D+03 -.195619882808D+01 -.778068123946D-08
    -.200008331150D-10  .100000000000D+01  .198700000000D+04  .000000000000D+00
     .240000000000D+01  .000000000000D+00 -.977888703346D-08  .360000000000D+02
     .223206000000D+06  .400000000000D+01
15 18  2  6 16  0  0.0 -.357126817107D-03  .113686837722D-12  .000000000000D+00
     .380000000000D+02  .147187500000D+02  .527057668353D-08  .233590438258D+01
     .670552253723D-06  .101626197575D-01  .991299748421D-05  .515369038010D+04
     .230400000000D+06 -.158324837685D-06  .126544318576D+01 -.141561031342D-06
     .928238678398D+00  .172656250000D+03  .665174430659D+00 -.822319967213D-08
    -.189293599124D-10  .100000000000D+01  .198700000000D+04  .000000000000D+00
     .240000000000D+01  .000000000000D+00 -.107102096081D-07  .380000000000D+02
     .223206000000D+06  .400000000000D+01
16 18  2  6 16  0  0.0  .327625311911D-04 -.682121026330D-12  .000000000000D+00
     .630000000000D+02 -.320000000000D+02  .388837625219D-08 -.217130856705D+01
    -.173412263393D-05  .982956693042D-02  .709295272827D-05  .515358045387D+04
     .230400000000D+06  .372529029846D-07 -.276279399419D+01 -.707805156708D-07
     .988224092323D+00  .257812500000D+03  .464311443750D+00 -.781603985515D-08
    -.202151277555D-09  .100000000000D+01  .198700000000D+04  .000000000000D+00
     .240000000000D+01  .000000000000D+00 -.107102096081D-07  .630000000000D+02
     .223206000000D+06  .400000000000D+01
19 18  2  6 16  0  0.0 -.458849593997D-03  .250111042988D-11  .000000000000D+00
     .750000000000D+02 -.909375000000D+01  .394516433193D-08 -.162718237708D+00
    -.363215804100D-06  .970850873273D-02  .883266329765D-05  .515369975471D+04
     .230400000000D+06 -.633299350739D-07 -.169985508263D+01  .178813934326D-06
     .979208523188D+00  .222656250000D+03  .112026326433D+01 -.795140263641D-08
     .220009164265D-09  .100000000000D+01  .198700000000D+04  .000000000000D+00
     .240000000000D+01  .000000000000D+00 -.153668224812D-07  .750000000000D+02
     .223206000000D+06  .400000000000D+01
21 18  2  6 16  0  0.0 -.433442182839D-03  .432009983342D-11  .000000000000D+00
     .640000000000D+02  .706250000000D+01  .525521890096D-08 -.723171924705D+00
     .573694705963D-06  .243968740106D-01  .659376382828D-05  .515376370621D+04
     .230400000000D+06 -.288709998131D-06 -.794608344524D+00  .251457095146D-06
     .942621531582D+00  .251437500000D+03 -.159787249737D+01 -.889929926296D-08
     .440018328530D-09  .100000000000D+01  .198700000000D+04  .000000000000D+00
     .240000000000D+01  .000000000000D+00 -.102445483208D-07  .640000000000D+02
     .223206000000D+06  .400000000000D+01
22 18  2  6 16  0  0.0 -.282487366349D-03 -.129602995003D-10  .000000000000D+00
     .960000000000D+02 -.502500000000D+02  .559416159071D-08  .253037426973D+01
    -.270083546638D-05  .725869776215D-02  .718235969543D-05  .515359587669D+04
     .230400000000D+06  .113621354103D-06  .243592146865D+00 -.391155481339D-07
     .924975284133D+00  .223500000000D+03 -.161650418984D+01 -.845142346428D-08
    -.154292141173D-09  .100000000000D+01  .198700000000D+04  .000000000000D+00
     .240000000000D+01  .000000000000D+00 -.176951289177D-07  .960000000000D+02
     .223206000000D+06  .400000000000D+01
